{"fetched_at":"2026-07-19T07:05:28.070Z","source":"https://celestrak.org/NORAD/elements/gp.php?NAME=PLEIADES&FORMAT=JSON","constellation":"pleiades-neo","records":[{"OBJECT_NAME":"PLEIADES NEO 3","OBJECT_ID":"2021-034A","EPOCH":"2026-07-18T20:36:00.987264","CLASSIFICATION_TYPE":"U","MEAN_MOTION":14.8167227,"ECCENTRICITY":0.0001397,"INCLINATION":97.8938,"RA_OF_ASC_NODE":274.1695,"ARG_OF_PERICENTER":94.6005,"MEAN_ANOMALY":265.5367,"EPHEMERIS_TYPE":0,"NORAD_CAT_ID":48268,"ELEMENT_SET_NO":999,"REV_AT_EPOCH":28234,"BSTAR":0.000053399,"MEAN_MOTION_DOT":0.00000368,"MEAN_MOTION_DDOT":0},{"OBJECT_NAME":"PLEIADES NEO 4","OBJECT_ID":"2021-073E","EPOCH":"2026-07-18T11:41:08.462400","CLASSIFICATION_TYPE":"U","MEAN_MOTION":14.81674771,"ECCENTRICITY":0.00013179,"INCLINATION":97.8937,"RA_OF_ASC_NODE":273.7994,"ARG_OF_PERICENTER":95.2302,"MEAN_ANOMALY":264.9061,"EPHEMERIS_TYPE":0,"NORAD_CAT_ID":49070,"ELEMENT_SET_NO":999,"REV_AT_EPOCH":26600,"BSTAR":0.000053928827,"MEAN_MOTION_DOT":0.00000372,"MEAN_MOTION_DDOT":0}]}
