PLEIADES NEO 3          
1 48268U 21034A   26199.85834476  .00000368  00000+0  53399-4 0  9999
2 48268  97.8938 274.1695 0001397  94.6005 265.5367 14.81672270282343
PLEIADES NEO 4          
1 49070U 21073E   26199.48690350  .00000372  00000+0  53929-4 0  9998
2 49070  97.8937 273.7994 0001317  95.2302 264.9061 14.81674771266007
